[{"OBJECT_NAME":"GAOFEN-8","OBJECT_ID":"2015-030A","EPOCH":"2026-03-09T22:36:58.818816","MEAN_MOTION":15.42442145,"ECCENTRICITY":0.00094419,"INCLINATION":97.6937,"RA_OF_ASC_NODE":256.5993,"ARG_OF_PERICENTER":186.9844,"MEAN_ANOMALY":173.1273,"EPHEMERIS_TYPE":0,"CLASSIFICATION_TYPE":"U","NORAD_CAT_ID":40701,"ELEMENT_SET_NO":999,"REV_AT_EPOCH":59613,"BSTAR":0.00043128459,"MEAN_MOTION_DOT":0.00018613,"MEAN_MOTION_DDOT":0},{"OBJECT_NAME":"AEROCUBE 16A","OBJECT_ID":"2024-053C","EPOCH":"2026-03-09T12:33:55.195200","MEAN_MOTION":15.40652986,"ECCENTRICITY":0.0003842,"INCLINATION":49.9887,"RA_OF_ASC_NODE":110.3791,"ARG_OF_PERICENTER":297.8088,"MEAN_ANOMALY":62.2484,"EPHEMERIS_TYPE":0,"CLASSIFICATION_TYPE":"U","NORAD_CAT_ID":59290,"ELEMENT_SET_NO":999,"REV_AT_EPOCH":10572,"BSTAR":0.00043507,"MEAN_MOTION_DOT":0.00017693,"MEAN_MOTION_DDOT":0}]
